[{"OBJECT_NAME":"DAMPE","OBJECT_ID":"2015-078A","EPOCH":"2026-03-09T23:55:00.527232","MEAN_MOTION":15.30502084,"ECCENTRICITY":0.00138005,"INCLINATION":97.4588,"RA_OF_ASC_NODE":73.9866,"ARG_OF_PERICENTER":70.6942,"MEAN_ANOMALY":289.579,"EPHEMERIS_TYPE":0,"CLASSIFICATION_TYPE":"U","NORAD_CAT_ID":41173,"ELEMENT_SET_NO":999,"REV_AT_EPOCH":56937,"BSTAR":9.1158173e-5,"MEAN_MOTION_DOT":2.617e-5,"MEAN_MOTION_DDOT":0},{"OBJECT_NAME":"STARLINK-35490","OBJECT_ID":"2025-243AD","EPOCH":"2026-03-09T21:23:39.699744","MEAN_MOTION":15.30205424,"ECCENTRICITY":9.684e-5,"INCLINATION":53.1591,"RA_OF_ASC_NODE":244.3867,"ARG_OF_PERICENTER":77.0658,"MEAN_ANOMALY":283.0451,"EPHEMERIS_TYPE":0,"CLASSIFICATION_TYPE":"U","NORAD_CAT_ID":66204,"ELEMENT_SET_NO":999,"REV_AT_EPOCH":2068,"BSTAR":0.0012214249,"MEAN_MOTION_DOT":0.00035997,"MEAN_MOTION_DDOT":0}]
